#dP2021  6 13  0  0  0.00000000      96 __u+U ITR00 EXT  IAC
## 2162      0.00000000   900.00000000 59378 0.0000000000000
+  116   C06C07C08C09C10C11C12C13C14C16C19C20C21C22C23C24C25
+        C26C27C28C29C30C32C33C34C35C36C37C38C39C40C41C42C43
+        C44C45C46E01E02E03E04E05E07E08E09E11E12E13E14E15E18
+        E19E21E24E25E26E27E30E31E33E36G01G02G03G04G05G06G07
+        G08G09G10G12G13G14G15G16G17G18G19G20G21G22G23G24G25
+        G26G27G28G29G30G31G32J01J02J03R01R02R03R04R05R07R08
+        R09R11R12R13R14R15R16R17R18R19R20R21R22R24  0  0  0
++         9 11  7 11 10  7  9  9 10 10  7  9  8  8  9  8  9
++         9  8  8  9  9  9  8 10  9  9  8  8  9  9  7  7 10
++         9  8  9  7  9  7  9  8  7  7  9  8  7  9  9  8  8
++         7  6  8  7  7  9  7  8  8  7  8  8  7  9  9 10  7
++         7  8  8  7  7  7  8  7  7  6  8  7  7  7  8  7  7
++         9  6  9  8  5  0  8 10  7  9  8  7  8  8  8  7  9
++         9  9 10  8  9  9  8  8  9  7 10  8  7 10  0  0  0
%c M  cc GPS ccc cccc cccc cccc cccc ccccc ccccc ccccc ccccc
%c cc cc ccc ccc cccc cccc cccc cccc ccccc ccccc ccccc ccccc
%f  0.0000000  0.000000000  0.00000000000  0.000000000000000
%f  0.0000000  0.000000000  0.00000000000  0.000000000000000
%i    0    0    0    0      0      0      0      0         0
%i    0    0    0    0      0      0      0      0         0
/* IAC                                ULTRA-RAPID PREDICTION
/* S/V CLOCKS ARE ALIGNED TO GNSS TIME                      
/* G:C1WC2W R:C1PC2P E:C1XC5X C:C2IC6I J:C1CC2S             
/* PCV:IGS14_2148 OL/AL:FES2004  NONE     YN ORB:CoN CLK:CoN
*  2021 06 13  8  0  0.00000000
PC06 -24961.365886  26614.572679 -21065.514247    497.479489
PC07 -12752.107417  37323.296159 -13892.107445     78.796250
PC08  -6567.815373  21165.812410  36015.801737   -894.119866
PC09  -9885.745594  26917.114622 -30744.348313    451.853534
PC10  -1859.732488  41847.205535   -627.105314    -30.503960
PC11  19997.178449   6762.839104  18326.825314    396.968268
PC12   1614.738718  15452.892019  23205.715987    846.260080
PC13   5154.125767  27900.943359  31373.318814    298.046817
PC14  11901.310185  13920.653932 -21009.454022    906.812024
PC16 -21956.221894  27174.087817 -23629.371239   -895.956853
PC19 -15555.517690  -3178.257201  22978.433844    870.701737
PC20  -7273.565807 -21096.768008  16797.706798   -878.577335
PC21  -5862.651848  27266.883096   -193.634723   -935.796363
PC22 -15111.996884  17130.499967  16011.711727   -950.431635
PC23  16037.271976  -6481.462104  21906.305085   -934.240959
PC24  16433.361248  21620.848722  -6467.177441   -891.046289
PC25  23459.713268   9696.922295  11608.914937   -901.751299
PC26   1655.956617  19983.279737 -19426.235383    893.413170
PC27   8921.391319 -17153.008379 -20139.353438    547.524644
PC28  24476.712035 -11821.569355  -6332.329566    -62.892057
PC29 -25587.230127    523.473449 -11140.065786    405.457848
PC30 -11701.076481 -12261.137414 -22182.334117    470.512583
PC32   5631.938806 -27339.964910    234.298403   -925.546337
PC33  15576.299789   3132.428960 -22932.038333   -936.832337
PC34  12411.746649  11933.980392  21942.394679   -651.510792
PC35 -24247.031367  12497.110512   5962.145934   -235.551679
PC36 -23228.693776 -10560.745804 -11274.958794   -727.465879
PC37   -269.325337 -19588.732011  19888.881035   -876.096730
PC38  -4909.711555  24528.813829  33967.619643    154.974690
PC39 -18439.531305  28733.333655 -24816.673222     31.759689
PC40  -9391.250179  40668.067135  -5358.928063    170.516365
PC41  15138.322056 -16948.264374 -16145.596984   -947.494470
PC42   6819.250240  21631.780580 -16197.283275   -913.622475
PC43  25398.367657     24.969379  11525.256110   -774.216081
PC44  -8584.144278  17551.945770  19924.120838    237.057233
PC45 -15839.815999   6545.896341 -22012.004594    465.950090
PC46 -17150.898914 -21285.582235   5544.313925    226.565228
PE01  -7818.815232  19593.428143 -20762.247682  -1128.241740
PE02   7736.267257 -19691.392339  20697.089324    225.772722
PE03  18292.101888 -23245.762861   1332.424730   -441.430544
PE04  -3178.266782  23407.776991 -17822.677160   -791.397716
PE05  22903.280968  -9413.058914 -16213.737866   -273.331533
PE07 -14113.433853  -9766.046238  24127.714629   -549.295610
PE08   2843.268395 -23240.862033  18126.197689   5986.773180
PE09  14191.088821   9408.670735 -24204.124699   5635.283010
PE11  24686.884164  11712.227958  11346.824756   5857.045895
PE12   5634.408300  16709.439560  23764.262300   5162.555957
PE13 -24464.842200 -11809.698289 -11766.419976    417.681051
PE14  19297.699194   2086.105553  15727.629969  -1464.482764
PE15  -5770.169549 -16622.266153 -23803.275976    809.075549
PE18 -17064.660744 -11925.071410 -23661.838256  -1603.978115
PE19 -19502.445868  22250.093367    869.782589    301.060823
PE21 -17186.079262    240.704392 -24099.531246   -670.400276
PE24  16676.957014  20792.776373  12880.215751   -952.191747
PE25  17243.043374    -14.640504  24065.073346   -536.782568
PE26 -28513.645997    420.184038   7935.240518   1698.857892
PE27 -17010.463352 -20037.067472 -13606.657957    -53.245601
PE30  -6018.819538 -28403.421866   5730.476950   2867.459043
PE31   6848.404293  28392.647629  -4794.621367   -482.160100
PE33 -16296.098964  11635.904884  21801.742740   -469.271140
PE36  28712.158957     50.393520  -7178.932076   -220.285121
PG01 -20945.217911 -14350.244271  -8647.300618    659.960997
PG02  -1203.558107  15651.968265  22075.100901   -611.981851
PG03 -12353.033877 -19443.334604  13232.651228   -190.643144
PG04 -13218.615104  -8710.758288  21344.200513   -199.704557
PG05   5685.283502  25838.649942   -686.168956    -44.801383
PG06 -13463.220472   9678.769693  20820.728625     26.381242
PG07 -25573.328638  -6350.116900  -4680.392390    176.951712
PG08  -4088.722893 -15583.181225 -21070.024426    -24.890103
PG09 -20645.722501   2080.330426  16535.111227   -350.847846
PG10  12561.537262 -10716.034307 -20626.125848   -141.366059
PG12  10133.036483  21345.491176  12014.887945    -54.319277
PG13  -5563.045532  18364.524310 -18436.380254    144.273804
PG14 -13297.218987  10432.380006 -20489.989201     69.992216
PG15   6666.892288  15498.666712 -20815.736553   -142.720759
PG16    763.438211 -25981.345180   3851.885875   -340.515739
PG17 -22623.827780  13303.260440  -3654.204562    457.695091
PG18  24942.473686   3846.205496  -8404.790916    346.950825
PG19 -20094.830605  16630.370287   4341.169339     12.745958
PG20   7549.423698  25599.402478    759.819103    521.217244
PG21 -16148.474584 -15238.613188 -14229.135521    124.707808
PG22  -9987.636921 -24339.395651   4559.046449   -589.715794
PG23  15521.058727   1861.692267 -21499.988998     97.338372
PG24  17879.809106  15322.490899 -12912.098822    129.840779
PG25  15201.502475  10140.443256  19104.259820    155.001155
PG26   5626.635830 -21854.014965  13728.645460     97.770146
PG27   6999.538155 -19851.191029 -16148.271857   -146.342385
PG28 -10609.903835  16754.709239 -17213.403181    555.432396
PG29  20144.799922    -90.921437  17286.305768   -363.324215
PG30 -21078.631485   3919.209496 -15761.663020   -438.372027
PG31  11300.957728 -11483.418404  21100.162136   -122.792088
PG32  21137.184673 -15801.805557  -1886.531567     18.643011
PJ01 -32034.221974  25252.247006  15521.018270   -395.011511
PJ02 -19638.349067  23188.007517 -24674.332656     -0.230278
PJ03 -29935.815256  27572.956296  16364.995313     -7.955394
PR01  -7903.461923  -9289.056885  22411.730197     80.803599
PR02 -14225.045925  11880.184143  17600.769325    482.192367
PR03 -10927.224537  22984.586282   2128.670720     37.599363
PR04  -1669.616997  20968.521068 -14400.899194     91.087946
PR05   8503.795253   7348.698077 -22884.730834     73.465622
PR07  10600.099465 -23137.744084  -1313.630473    -42.338271
PR08   1456.530360 -20936.679276  14544.623448    -59.474789
PR09  13732.860971    477.326025  21492.211064     -2.312851
PR11 -11224.509840 -21182.858938   8749.887919    -11.684578
PR12 -17618.791910 -15829.577721  -9421.638110    236.784990
PR13 -13930.358239  -1355.694690 -21339.743942    -56.192260
PR14  -1591.137115  14550.599509 -20871.997098     65.287231
PR15  11218.754805  21387.143963  -8182.619369    103.281805
PR16  18138.661456  14741.102387  10345.428765    -16.290146
PR17 -14283.677827  10132.029142  18531.383058    432.241464
PR18   3590.065892  10071.217771  23162.948109     79.881667
PR19  18978.133670   5569.373485  16102.906693   -147.563891
PR20  25105.577437  -3349.220859  -2830.920849    -50.790489
PR21  13221.487232 -10220.227560 -19288.553067   -216.188842
PR22  -4837.418913  -9846.303682 -23057.380506   -117.454100
PR24 -24913.142670   4148.461644   3540.713006     46.339630
EOF
